{"type": "FeatureCollection", "features": [ {"type": "Feature", "properties": {"norad_id": 41774, "name": "SKYSAT-C3", "group": "resource", "lat": -24.70158253370003, "lon": -171.2978750047951, "alt_km": 440.53364572057217, "timestamp": "2025-12-03T17:47:50.369536+00:00", "meta": {"OBJECT_NAME": "SKYSAT-C3", "OBJECT_ID": "2016-058E", "EPOCH": "2025-12-03T09:08:07.810944", "MEAN_MOTION": 15.43889152, "ECCENTRICITY": 0.0001368, "INCLINATION": 96.9312, "RA_OF_ASC_NODE": 11.566, "ARG_OF_PERICENTER": 101.0766, "MEAN_ANOMALY": 259.0637, "EPHEMERIS_TYPE": 0, "CLASSIFICATION_TYPE": "U", "NORAD_CAT_ID": 41774, "ELEMENT_SET_NO": 999, "REV_AT_EPOCH": 51581, "BSTAR": 0.00053253, "MEAN_MOTION_DOT": 0.00024142, "MEAN_MOTION_DDOT": 0}, "tle": {"line1": "1 41774U 16058E   25337.38064596  .00024142  00000+0  53253-3 0  9997", "line2": "2 41774  96.9312  11.5660 0001368 101.0766 259.0637 15.43889152515811"}}, "geometry": {"type": "Point", "coordinates": [-171.2978750047951, -24.70158253370003]}}, {"type": "Feature", "properties": {"norad_id": 41785, "name": "ALSAT 1B", "group": "resource", "lat": -53.92561172649127, "lon": 159.10030538775013, "alt_km": 663.4462665396404, "timestamp": "2025-12-03T17:47:50.369547+00:00", "meta": {"OBJECT_NAME": "ALSAT 1B", "OBJECT_ID": "2016-059C", "EPOCH": "2025-12-03T13:28:22.956384", "MEAN_MOTION": 14.72059765, "ECCENTRICITY": 0.0010387, "INCLINATION": 97.7819, "RA_OF_ASC_NODE": 349.7471, "ARG_OF_PERICENTER": 129.8274, "MEAN_ANOMALY": 230.385, "EPHEMERIS_TYPE": 0, "CLASSIFICATION_TYPE": "U", "NORAD_CAT_ID": 41785, "ELEMENT_SET_NO": 999, "REV_AT_EPOCH": 49179, "BSTAR": 0.0001222, "MEAN_MOTION_DOT": 7.21e-06, "MEAN_MOTION_DDOT": 0}, "tle": {"line1": "1 41785U 16059C   25337.56137681  .00000721  00000+0  12220-3 0  9992", "line2": "2 41785  97.7819 349.7471 0010387 129.8274 230.3850 14.72059765491792"}}, "geometry": {"type": "Point", "coordinates": [159.10030538775013, -53.92561172649127]}}, {"type": "Feature", "properties": {"norad_id": 41787, "name": "PATHFINDER 1", "group": "resource", "lat": 71.32166738283249, "lon": -175.1005012607867, "alt_km": 641.7193270526241, "timestamp": "2025-12-03T17:47:50.369557+00:00", "meta": {"OBJECT_NAME": "PATHFINDER 1", "OBJECT_ID": "2016-059E", "EPOCH": "2025-12-03T10:45:58.779072", "MEAN_MOTION": 14.67294767, "ECCENTRICITY": 0.0029964, "INCLINATION": 97.8139, "RA_OF_ASC_NODE": 340.6535, "ARG_OF_PERICENTER": 109.4041, "MEAN_ANOMALY": 251.0407, "EPHEMERIS_TYPE": 0, "CLASSIFICATION_TYPE": "U", "NORAD_CAT_ID": 41787, "ELEMENT_SET_NO": 999, "REV_AT_EPOCH": 49100, "BSTAR": 0.00022042, "MEAN_MOTION_DOT": 1.205e-05, "MEAN_MOTION_DDOT": 0}, "tle": {"line1": "1 41787U 16059E   25337.44859698  .00001205  00000+0  22042-3 0  9991", "line2": "2 41787  97.8139 340.6535 0029964 109.4041 251.0407 14.67294767491007"}}, "geometry": {"type": "Point", "coordinates": [-175.1005012607867, 71.32166738283249]}}, {"type": "Feature", "properties": {"norad_id": 41790, "name": "SCATSAT 1", "group": "resource", "lat": 79.48895251022371, "lon": -16.251962585503385, "alt_km": 613.964794170728, "timestamp": "2025-12-03T17:47:50.369568+00:00", "meta": {"OBJECT_NAME": "SCATSAT 1", "OBJECT_ID": "2016-059H", "EPOCH": "2025-12-03T02:48:20.619648", "MEAN_MOTION": 14.78880649, "ECCENTRICITY": 0.00557828, "INCLINATION": 98.148, "RA_OF_ASC_NODE": 33.6671, "ARG_OF_PERICENTER": 158.5584, "MEAN_ANOMALY": 201.7981, "EPHEMERIS_TYPE": 0, "CLASSIFICATION_TYPE": "U", "NORAD_CAT_ID": 41790, "ELEMENT_SET_NO": 999, "REV_AT_EPOCH": 7260, "BSTAR": 0.00033695932, "MEAN_MOTION_DOT": 2.491e-05, "MEAN_MOTION_DDOT": 0}, "tle": {"line1": "1 41790U 16059H   25337.11690532  .00002491  00000+0  33696-3 0  9994", "line2": "2 41790  98.1480  33.6671 0055782 158.5584 201.7981 14.78880649 72600"}}, "geometry": {"type": "Point", "coordinates": [-16.251962585503385, 79.48895251022371]}}, {"type": "Feature", "properties": {"norad_id": 41875, "name": "GOKTURK 1A", "group": "resource", "lat": -29.013207062771222, "lon": -125.2185992711103, "alt_km": 690.4611683000267, "timestamp": "2025-12-03T17:47:50.369578+00:00", "meta": {"OBJECT_NAME": "GOKTURK 1A", "OBJECT_ID": "2016-073A", "EPOCH": "2025-12-03T11:21:51.566400", "MEAN_MOTION": 14.6276154, "ECCENTRICITY": 0.0001238, "INCLINATION": 98.1431, "RA_OF_ASC_NODE": 229.9623, "ARG_OF_PERICENTER": 81.9343, "MEAN_ANOMALY": 278.1999, "EPHEMERIS_TYPE": 0, "CLASSIFICATION_TYPE": "U", "NORAD_CAT_ID": 41875, "ELEMENT_SET_NO": 999, "REV_AT_EPOCH": 48021, "BSTAR": 0.00017437, "MEAN_MOTION_DOT": 8.42e-06, "MEAN_MOTION_DDOT": 0}, "tle": {"line1": "1 41875U 16073A   25337.47351350  .00000842  00000+0  17437-3 0  9998", "line2": "2 41875  98.1431 229.9623 0001238  81.9343 278.1999 14.62761540480214"}}, "geometry": {"type": "Point", "coordinates": [-125.2185992711103, -29.013207062771222]}}, {"type": "Feature", "properties": {"norad_id": 41877, "name": "RESOURCESAT-2A", "group": "resource", "lat": -81.1508669238318, "lon": 130.54816669377655, "alt_km": 826.566150050704, "timestamp": "2025-12-03T17:47:50.369607+00:00", "meta": {"OBJECT_NAME": "RESOURCESAT-2A", "OBJECT_ID": "2016-074A", "EPOCH": "2025-12-03T11:27:29.430144", "MEAN_MOTION": 14.21593036, "ECCENTRICITY": 0.0001168, "INCLINATION": 98.7768, "RA_OF_ASC_NODE": 47.387, "ARG_OF_PERICENTER": 301.399, "MEAN_ANOMALY": 58.7073, "EPHEMERIS_TYPE": 0, "CLASSIFICATION_TYPE": "U", "NORAD_CAT_ID": 41877, "ELEMENT_SET_NO": 999, "REV_AT_EPOCH": 46649, "BSTAR": 0.000141, "MEAN_MOTION_DOT": 2.65e-06, "MEAN_MOTION_DDOT": 0}, "tle": {"line1": "1 41877U 16074A   25337.47742396  .00000265  00000+0  14100-3 0  9998", "line2": "2 41877  98.7768  47.3870 0001168 301.3990  58.7073 14.21593036466497"}}, "geometry": {"type": "Point", "coordinates": [130.54816669377655, -81.1508669238318]}}, {"type": "Feature", "properties": {"norad_id": 41948, "name": "CARTOSAT-2D", "group": "resource", "lat": 0.8598067060336554, "lon": 35.26330998519174, "alt_km": 514.0636835173882, "timestamp": "2025-12-03T17:47:50.369618+00:00", "meta": {"OBJECT_NAME": "CARTOSAT-2D", "OBJECT_ID": "2017-008A", "EPOCH": "2025-12-03T11:28:15.434688", "MEAN_MOTION": 15.19342329, "ECCENTRICITY": 0.0004909, "INCLINATION": 97.4403, "RA_OF_ASC_NODE": 35.116, "ARG_OF_PERICENTER": 197.1984, "MEAN_ANOMALY": 162.9085, "EPHEMERIS_TYPE": 0, "CLASSIFICATION_TYPE": "U", "NORAD_CAT_ID": 41948, "ELEMENT_SET_NO": 999, "REV_AT_EPOCH": 48786, "BSTAR": 2.9883e-06, "MEAN_MOTION_DOT": -4e-08, "MEAN_MOTION_DDOT": 0}, "tle": {"line1": "1 41948U 17008A   25337.47795642 -.00000004  00000+0  29883-5 0  9995", "line2": "2 41948  97.4403  35.1160 0004909 197.1984 162.9085 15.19342329487865"}}, "geometry": {"type": "Point", "coordinates": [35.26330998519174, 0.8598067060336554]}}, {"type": "Feature", "properties": {"norad_id": 42063, "name": "SENTINEL-2B", "group": "resource", "lat": -57.38182832622825, "lon": 63.94671894058689, "alt_km": 796.8159348125773, "timestamp": "2025-12-03T17:47:50.369630+00:00", "meta": {"OBJECT_NAME": "SENTINEL-2B", "OBJECT_ID": "2017-013A", "EPOCH": "2025-12-03T11:21:23.686848", "MEAN_MOTION": 14.30809969, "ECCENTRICITY": 0.0001117, "INCLINATION": 98.5727, "RA_OF_ASC_NODE": 50.0489, "ARG_OF_PERICENTER": 98.2636, "MEAN_ANOMALY": 261.8674, "EPHEMERIS_TYPE": 0, "CLASSIFICATION_TYPE": "U", "NORAD_CAT_ID": 42063, "ELEMENT_SET_NO": 999, "REV_AT_EPOCH": 45665, "BSTAR": 0.00011453, "MEAN_MOTION_DOT": 2.57e-06, "MEAN_MOTION_DDOT": 0}, "tle": {"line1": "1 42063U 17013A   25337.47319082  .00000257  00000+0  11453-3 0  9991", "line2": "2 42063  98.5727  50.0489 0001117  98.2636 261.8674 14.30809969456654"}}, "geometry": {"type": "Point", "coordinates": [63.94671894058689, -57.38182832622825]}}, {"type": "Feature", "properties": {"norad_id": 42767, "name": "CARTOSAT-2E", "group": "resource", "lat": -82.48384269717022, "lon": 118.57802133763673, "alt_km": 514.1709438624166, "timestamp": "2025-12-03T17:47:50.369641+00:00", "meta": {"OBJECT_NAME": "CARTOSAT-2E", "OBJECT_ID": "2017-036C", "EPOCH": "2025-12-03T11:51:56.584224", "MEAN_MOTION": 15.19169077, "ECCENTRICITY": 0.0002305, "INCLINATION": 97.4577, "RA_OF_ASC_NODE": 35.2016, "ARG_OF_PERICENTER": 286.1586, "MEAN_ANOMALY": 73.9394, "EPHEMERIS_TYPE": 0, "CLASSIFICATION_TYPE": "U", "NORAD_CAT_ID": 42767, "ELEMENT_SET_NO": 999, "REV_AT_EPOCH": 46843, "BSTAR": 0.00036503, "MEAN_MOTION_DOT": 7.61e-05, "MEAN_MOTION_DDOT": 0}, "tle": {"line1": "1 42767U 17036C   25337.49440491  .00007610  00000+0  36503-3 0  9991", "line2": "2 42767  97.4577  35.2016 0002305 286.1586  73.9394 15.19169077468436"}}, "geometry": {"type": "Point", "coordinates": [118.57802133763673, -82.48384269717022]}}, {"type": "Feature", "properties": {"norad_id": 42920, "name": "FORMOSAT-5", "group": "resource", "lat": 10.781279423920083, "lon": 50.65625955781502, "alt_km": 718.7056329216475, "timestamp": "2025-12-03T17:47:50.369652+00:00", "meta": {"OBJECT_NAME": "FORMOSAT-5", "OBJECT_ID": "2017-049A", "EPOCH": "2025-12-03T11:07:38.309376", "MEAN_MOTION": 14.50996077, "ECCENTRICITY": 0.0010318, "INCLINATION": 98.2463, "RA_OF_ASC_NODE": 51.9663, "ARG_OF_PERICENTER": 326.5199, "MEAN_ANOMALY": 33.5343, "EPHEMERIS_TYPE": 0, "CLASSIFICATION_TYPE": "U", "NORAD_CAT_ID": 42920, "ELEMENT_SET_NO": 999, "REV_AT_EPOCH": 43829, "BSTAR": 0.00011248, "MEAN_MOTION_DOT": 4.01e-06, "MEAN_MOTION_DDOT": 0}, "tle": {"line1": "1 42920U 17049A   25337.46363784  .00000401  00000+0  11248-3 0  9992", "line2": "2 42920  98.2463  51.9663 0010318 326.5199  33.5343 14.50996077438294"}}, "geometry": {"type": "Point", "coordinates": [50.65625955781502, 10.781279423920083]}}]}